NOAA 15                 
1 25338U 98030A   24193.57382028  .00000295  00000+0  13994-3 0  9999
2 25338  98.5673 220.1904 0009150 250.9788 109.0402 14.26624297360663
NOAA 18                 
1 28654U 05018A   24193.56284135  .00000276  00000+0  17101-3 0  9999
2 28654  98.8740 270.3256 0013970 358.9190   1.1950 14.13249901986613
NOAA 19                 
1 33591U 09005A   24193.58851125  .00000259  00000+0  16308-3 0  9995
2 33591  99.0457 249.6446 0013207 219.9025 140.1177 14.13044678794811
METOP-B                 
1 38771U 12049A   24193.59852195  .00000189  00000+0  10608-3 0  9990
2 38771  98.6266 250.2721 0001323  81.8408 278.2920 14.21451609613027
SARAL                   
1 39086U 13009A   24193.59800606  .00000180  00000+0  82688-4 0  9996
2 39086  98.5515  18.3740 0001614 174.7865 185.3336 14.32441735594577
METOP-C                 
1 43689U 18087A   24193.56621217  .00000187  00000+0  10551-3 0  9993
2 43689  98.7222 252.5568 0002502  46.9844 313.1543 14.21487843294589
ANGELS                  
1 44876U 19092D   24193.51936140  .00007359  00000+0  27616-3 0  9996
2 44876  97.4745  22.1176 0008658 227.1412 132.9100 15.27483787253077
OTB-3-GAZELLE           
1 54023U 22127A   24193.54304943  .00000272  00000+0  95581-4 0  9991
2 54023  98.3434 187.3066 0013841 152.9770 207.2144 14.42131001 92633
EOS-6 (OCEANSAT-3)      
1 54361U 22158A   24193.56531279  .00000547  00000+0  16259-3 0  9995
2 54361  98.3539 290.2671 0001899 103.6973 256.4430 14.46979410 85799
